start=new Date('2022-09-03T00:00:00.000Z').valueOf();
sats=[{"LAUNCH_DATE":"2022-05-18","ELEMENT_SET_NO":"999","MEAN_MOTION_DDOT":"0.0000000000000","BSTAR":"-0.00154640000000","SEMIMAJOR_AXIS":"6917.868","ARG_OF_PERICENTER":"59.7803","PERIOD":"95.437","TIME_SYSTEM":"UTC","APOAPSIS":"541.440","RCS_SIZE":"LARGE","INCLINATION":"53.2191","OBJECT_NAME":"STARLINK-4071","OBJECT_ID":"2022-053R","COUNTRY_CODE":"US","DECAY_DATE":null,"RA_OF_ASC_NODE":"157.2009","MEAN_ANOMALY":"332.4122","OBJECT_TYPE":"PAYLOAD","GP_ID":"211592117","REV_AT_EPOCH":"130","PERIAPSIS":"538.026","MEAN_MOTION":"15.08844039","TLE_LINE1":"1 52671U 22053R   22245.91668981 -.00024819  00000-0 -15464-2 0  9994","REF_FRAME":"TEME","CENTER_NAME":"EARTH","EPHEMERIS_TYPE":"0","FILE":"3555599","SITE":"AFETR","ECCENTRICITY":"0.00024670","CLASSIFICATION_TYPE":"U","TLE_LINE2":"2 52671  53.2191 157.2009 0002467  59.7803 332.4122 15.08844039  1302","MEAN_MOTION_DOT":"-0.00024819","MEAN_ELEMENT_THEORY":"SGP4","NORAD_CAT_ID":"52671","EPOCH":"2022-09-02T22:00:01.999584"},{"SITE":"AFETR","FILE":"3555599","EPHEMERIS_TYPE":"0","EPOCH":"2022-09-02T22:00:01.999584","MEAN_ELEMENT_THEORY":"SGP4","NORAD_CAT_ID":"52672","MEAN_MOTION_DOT":"-0.00024232","TLE_LINE2":"2 52672  53.2191 157.2051 0002549  60.5532 271.6328 15.08855011  1304","CLASSIFICATION_TYPE":"U","ECCENTRICITY":"0.00025490","REV_AT_EPOCH":"130","PERIAPSIS":"537.936","GP_ID":"211592252","OBJECT_TYPE":"PAYLOAD","MEAN_ANOMALY":"271.6328","RA_OF_ASC_NODE":"157.2051","DECAY_DATE":null,"COUNTRY_CODE":"US","CENTER_NAME":"EARTH","REF_FRAME":"TEME","TLE_LINE1":"1 52672U 22053S   22245.91668981 -.00024232  00000-0 -15088-2 0  9996","MEAN_MOTION":"15.08855011","RCS_SIZE":"LARGE","TIME_SYSTEM":"UTC","APOAPSIS":"541.463","PERIOD":"95.437","ARG_OF_PERICENTER":"60.5532","OBJECT_ID":"2022-053S","OBJECT_NAME":"STARLINK-4073","INCLINATION":"53.2191","MEAN_MOTION_DDOT":"0.0000000000000","LAUNCH_DATE":"2022-05-18","ELEMENT_SET_NO":"999","SEMIMAJOR_AXIS":"6917.835","BSTAR":"-0.00150880000000"},{"ARG_OF_PERICENTER":"60.0648","PERIOD":"95.438","TIME_SYSTEM":"UTC","APOAPSIS":"541.441","RCS_SIZE":"LARGE","INCLINATION":"53.2168","OBJECT_NAME":"STARLINK-3976","OBJECT_ID":"2022-053T","LAUNCH_DATE":"2022-05-18","ELEMENT_SET_NO":"999","MEAN_MOTION_DDOT":"0.0000000000000","BSTAR":"-0.00163450000000","SEMIMAJOR_AXIS":"6917.881","EPHEMERIS_TYPE":"0","FILE":"3555599","SITE":"AFETR","ECCENTRICITY":"0.00024500","CLASSIFICATION_TYPE":"U","TLE_LINE2":"2 52673  53.2168 157.1903 0002450  60.0648  12.1415 15.08839683  1300","MEAN_MOTION_DOT":"-0.00026208","EPOCH":"2022-09-02T22:00:01.999584","NORAD_CAT_ID":"52673","MEAN_ELEMENT_THEORY":"SGP4","COUNTRY_CODE":"US","DECAY_DATE":null,"RA_OF_ASC_NODE":"157.1903","MEAN_ANOMALY":"12.1415","GP_ID":"211592855","OBJECT_TYPE":"PAYLOAD","PERIAPSIS":"538.051","REV_AT_EPOCH":"130","MEAN_MOTION":"15.08839683","REF_FRAME":"TEME","TLE_LINE1":"1 52673U 22053T   22245.91668981 -.00026208  00000-0 -16345-2 0  9999","CENTER_NAME":"EARTH"},{"GP_ID":"211591984","OBJECT_TYPE":"PAYLOAD","PERIAPSIS":"537.844","REV_AT_EPOCH":"130","RA_OF_ASC_NODE":"157.2082","DECAY_DATE":null,"MEAN_ANOMALY":"291.9459","COUNTRY_CODE":"US","CENTER_NAME":"EARTH","REF_FRAME":"TEME","TLE_LINE1":"1 52674U 22053U   22245.91668981 -.00025382  00000-0 -15813-2 0  9991","MEAN_MOTION":"15.08860008","SITE":"AFETR","EPHEMERIS_TYPE":"0","FILE":"3555599","NORAD_CAT_ID":"52674","MEAN_ELEMENT_THEORY":"SGP4","EPOCH":"2022-09-02T22:00:01.999584","MEAN_MOTION_DOT":"-0.00025382","TLE_LINE2":"2 52674  53.2187 157.2082 0002660  60.2186 291.9459 15.08860008  1303","ECCENTRICITY":"0.00026600","CLASSIFICATION_TYPE":"U","MEAN_MOTION_DDOT":"0.0000000000000","LAUNCH_DATE":"2022-05-18","ELEMENT_SET_NO":"999","SEMIMAJOR_AXIS":"6917.819","BSTAR":"-0.00158130000000","RCS_SIZE":"LARGE","PERIOD":"95.436","APOAPSIS":"541.524","TIME_SYSTEM":"UTC","ARG_OF_PERICENTER":"60.2186","OBJECT_ID":"2022-053U","OBJECT_NAME":"STARLINK-3936","INCLINATION":"53.2187"},{"LAUNCH_DATE":"2022-05-18","ELEMENT_SET_NO":"999","MEAN_MOTION_DDOT":"0.0000000000000","SEMIMAJOR_AXIS":"6917.870","BSTAR":"-0.00167430000000","ARG_OF_PERICENTER":"62.0630","RCS_SIZE":"LARGE","APOAPSIS":"541.382","TIME_SYSTEM":"UTC","PERIOD":"95.437","INCLINATION":"53.2140","OBJECT_ID":"2022-053V","OBJECT_NAME":"STARLINK-3934","MEAN_ANOMALY":"25.1512","DECAY_DATE":null,"RA_OF_ASC_NODE":"147.2016","COUNTRY_CODE":"US","REV_AT_EPOCH":"130","PERIAPSIS":"538.087","OBJECT_TYPE":"PAYLOAD","GP_ID":"211592531","MEAN_MOTION":"15.08843559","CENTER_NAME":"EARTH","REF_FRAME":"TEME","TLE_LINE1":"1 52675U 22053V   22245.91668981 -.00026840  00000-0 -16743-2 0  9995","SITE":"AFETR","FILE":"3555599","EPHEMERIS_TYPE":"0","TLE_LINE2":"2 52675  53.2140 147.2016 0002381  62.0630  25.1512 15.08843559  1302","CLASSIFICATION_TYPE":"U","ECCENTRICITY":"0.00023810","NORAD_CAT_ID":"52675","EPOCH":"2022-09-02T22:00:01.999584","MEAN_ELEMENT_THEORY":"SGP4","MEAN_MOTION_DOT":"-0.00026840"},{"CLASSIFICATION_TYPE":"U","ECCENTRICITY":"0.00025600","TLE_LINE2":"2 52676  53.2179 157.1959 0002560  61.7585 350.4242 15.08845318  1304","MEAN_MOTION_DOT":"-0.00025746","EPOCH":"2022-09-02T22:00:01.999584","MEAN_ELEMENT_THEORY":"SGP4","NORAD_CAT_ID":"52676","FILE":"3555599","EPHEMERIS_TYPE":"0","SITE":"AFETR","MEAN_MOTION":"15.08845318","REF_FRAME":"TEME","TLE_LINE1":"1 52676U 22053W   22245.91668981 -.00025746  00000-0 -16050-2 0  9991","CENTER_NAME":"EARTH","COUNTRY_CODE":"US","MEAN_ANOMALY":"350.4242","DECAY_DATE":null,"RA_OF_ASC_NODE":"157.1959","REV_AT_EPOCH":"130","PERIAPSIS":"537.958","OBJECT_TYPE":"PAYLOAD","GP_ID":"211591840","INCLINATION":"53.2179","OBJECT_NAME":"STARLINK-4006","OBJECT_ID":"2022-053W","ARG_OF_PERICENTER":"61.7585","TIME_SYSTEM":"UTC","APOAPSIS":"541.500","PERIOD":"95.437","RCS_SIZE":"LARGE","BSTAR":"-0.00160500000000","SEMIMAJOR_AXIS":"6917.864","ELEMENT_SET_NO":"999","LAUNCH_DATE":"2022-05-18","MEAN_MOTION_DDOT":"0.0000000000000"},{"MEAN_MOTION_DDOT":"0.0000000000000","LAUNCH_DATE":"2022-05-18","ELEMENT_SET_NO":"999","SEMIMAJOR_AXIS":"6917.782","BSTAR":"-0.00451320000000","RCS_SIZE":"LARGE","TIME_SYSTEM":"UTC","APOAPSIS":"541.161","PERIOD":"95.436","ARG_OF_PERICENTER":"63.2286","OBJECT_ID":"2022-053X","OBJECT_NAME":"STARLINK-4028","INCLINATION":"53.2150","REV_AT_EPOCH":"130","PERIAPSIS":"538.132","OBJECT_TYPE":"PAYLOAD","GP_ID":"211592678","MEAN_ANOMALY":"63.9602","DECAY_DATE":null,"RA_OF_ASC_NODE":"147.2000","COUNTRY_CODE":"US","CENTER_NAME":"EARTH","TLE_LINE1":"1 52677U 22053X   22245.91668981 -.00071470  00000-0 -45132-2 0  9990","REF_FRAME":"TEME","MEAN_MOTION":"15.08872338","SITE":"AFETR","FILE":"3555599","EPHEMERIS_TYPE":"0","EPOCH":"2022-09-02T22:00:01.999584","MEAN_ELEMENT_THEORY":"SGP4","NORAD_CAT_ID":"52677","MEAN_MOTION_DOT":"-0.00071470","TLE_LINE2":"2 52677  53.2150 147.2000 0002189  63.2286  63.9602 15.08872338  1301","CLASSIFICATION_TYPE":"U","ECCENTRICITY":"0.00021890"},{"INCLINATION":"53.2133","OBJECT_NAME":"STARLINK-4074","OBJECT_ID":"2022-053Y","ARG_OF_PERICENTER":"55.4498","RCS_SIZE":"LARGE","TIME_SYSTEM":"UTC","APOAPSIS":"541.385","PERIOD":"95.437","SEMIMAJOR_AXIS":"6917.842","BSTAR":"-0.00302150000000","LAUNCH_DATE":"2022-05-18","ELEMENT_SET_NO":"999","MEAN_MOTION_DDOT":"0.0000000000000","TLE_LINE2":"2 52678  53.2133 147.1994 0002425  55.4498  26.5394 15.08852445  1305","CLASSIFICATION_TYPE":"U","ECCENTRICITY":"0.00024250","NORAD_CAT_ID":"52678","MEAN_ELEMENT_THEORY":"SGP4","EPOCH":"2022-09-02T22:00:01.999584","MEAN_MOTION_DOT":"-0.00048074","SITE":"AFETR","FILE":"3555599","EPHEMERIS_TYPE":"0","MEAN_MOTION":"15.08852445","CENTER_NAME":"EARTH","TLE_LINE1":"1 52678U 22053Y   22245.91668981 -.00048074  00000-0 -30215-2 0  9991","REF_FRAME":"TEME","MEAN_ANOMALY":"26.5394","RA_OF_ASC_NODE":"147.1994","DECAY_DATE":null,"COUNTRY_CODE":"US","PERIAPSIS":"538.030","REV_AT_EPOCH":"130","OBJECT_TYPE":"PAYLOAD","GP_ID":"211592398"},{"SITE":"AFETR","FILE":"3555599","EPHEMERIS_TYPE":"0","EPOCH":"2022-09-02T22:00:01.999584","MEAN_ELEMENT_THEORY":"SGP4","NORAD_CAT_ID":"52679","MEAN_MOTION_DOT":"-0.00022580","TLE_LINE2":"2 52679  53.2160 147.1984 0002504  65.0795 122.0996 15.08849068  1307","CLASSIFICATION_TYPE":"U","ECCENTRICITY":"0.00025040","REV_AT_EPOCH":"130","PERIAPSIS":"537.985","GP_ID":"211592118","OBJECT_TYPE":"PAYLOAD","MEAN_ANOMALY":"122.0996","RA_OF_ASC_NODE":"147.1984","DECAY_DATE":null,"COUNTRY_CODE":"US","CENTER_NAME":"EARTH","REF_FRAME":"TEME","TLE_LINE1":"1 52679U 22053Z   22245.91668981 -.00022580  00000-0 -14046-2 0  9990","MEAN_MOTION":"15.08849068","RCS_SIZE":"LARGE","APOAPSIS":"541.450","TIME_SYSTEM":"UTC","PERIOD":"95.437","ARG_OF_PERICENTER":"65.0795","OBJECT_NAME":"STARLINK-4031","OBJECT_ID":"2022-053Z","INCLINATION":"53.2160","MEAN_MOTION_DDOT":"0.0000000000000","LAUNCH_DATE":"2022-05-18","ELEMENT_SET_NO":"999","SEMIMAJOR_AXIS":"6917.853","BSTAR":"-0.00140460000000"},{"MEAN_MOTION_DDOT":"0.0000000000000","ELEMENT_SET_NO":"999","LAUNCH_DATE":"2022-05-18","SEMIMAJOR_AXIS":"6917.869","BSTAR":"-0.00217780000000","RCS_SIZE":"LARGE","TIME_SYSTEM":"UTC","APOAPSIS":"541.124","PERIOD":"95.437","ARG_OF_PERICENTER":"65.6039","OBJECT_ID":"2022-053AA","OBJECT_NAME":"STARLINK-3774","INCLINATION":"53.2144","PERIAPSIS":"538.344","REV_AT_EPOCH":"130","OBJECT_TYPE":"PAYLOAD","GP_ID":"211592253","MEAN_ANOMALY":"41.6174","DECAY_DATE":null,"RA_OF_ASC_NODE":"147.2015","COUNTRY_CODE":"US","CENTER_NAME":"EARTH","TLE_LINE1":"1 52680U 22053AA  22245.91668981 -.00034785  00000-0 -21778-2 0  9992","REF_FRAME":"TEME","MEAN_MOTION":"15.08843707","SITE":"AFETR","FILE":"3555599","EPHEMERIS_TYPE":"0","MEAN_ELEMENT_THEORY":"SGP4","EPOCH":"2022-09-02T22:00:01.999584","NORAD_CAT_ID":"52680","MEAN_MOTION_DOT":"-0.00034785","TLE_LINE2":"2 52680  53.2144 147.2015 0002009  65.6039  41.6174 15.08843707  1302","CLASSIFICATION_TYPE":"U","ECCENTRICITY":"0.00020090"}];
